{"type":"FeatureCollection","name":"ISAF 2009-2013 AAR Areas","features":[{"type":"Feature","properties":{"number":1,"area":"Barney","feature_role":"control_point"},"geometry":{"type":"Point","coordinates":[65.33167,30.01833]}},{"type":"Feature","properties":{"number":1,"area":"Barney","feature_role":"orbit_centerline"},"geometry":{"type":"LineString","coordinates":[[65.33163,30.01828],[65.32337,30.00241],[65.3191,29.9854],[65.32054,29.95937],[65.32666,29.94279],[65.33663,29.92767],[65.35778,29.90916],[65.39419,29.89492],[65.4242,29.89342],[65.46226,29.90393],[65.48573,29.92021],[65.84285,30.44569],[65.85085,30.47082],[65.84946,30.49685],[65.83879,30.52123],[65.82701,30.53537],[65.79462,30.55589],[65.75533,30.56328],[65.71595,30.55625],[65.68331,30.53603],[65.67135,30.522],[65.33167,30.01833]]}},{"type":"Feature","properties":{"number":2,"area":"Bart","feature_role":"control_point"},"geometry":{"type":"Point","coordinates":[63.81667,30.355]}},{"type":"Feature","properties":{"number":2,"area":"Bart","feature_role":"orbit_centerline"},"geometry":{"type":"LineString","coordinates":[[63.81664,30.35499],[63.79138,30.34071],[63.76794,30.31261],[63.76026,30.28741],[63.76035,30.27],[63.76463,30.25299],[63.77291,30.23711],[63.78482,30.22307],[63.81734,30.20283],[63.85656,30.19576],[63.88632,30.19993],[64.52105,30.44755],[64.54448,30.46401],[64.56087,30.48591],[64.56862,30.51109],[64.56695,30.53711],[64.56065,30.55365],[64.55049,30.5687],[64.52051,30.59179],[64.48221,30.60238],[64.44222,30.59863],[63.81667,30.355]]}},{"type":"Feature","properties":{"number":3,"area":"Carl","feature_role":"control_point"},"geometry":{"type":"Point","coordinates":[63.04833,31.20833]}},{"type":"Feature","properties":{"number":3,"area":"Carl","feature_role":"orbit_centerline"},"geometry":{"type":"LineString","coordinates":[[63.04829,31.20828],[63.03498,31.18485],[63.03112,31.16776],[63.03151,31.15035],[63.03611,31.13339],[63.04473,31.11762],[63.06432,31.09769],[63.09014,31.0839],[63.12984,31.07732],[63.15979,31.08185],[63.19445,31.09969],[63.60464,31.59852],[63.61511,31.623],[63.61619,31.64904],[63.60776,31.67409],[63.59723,31.68902],[63.56651,31.71173],[63.52758,31.72185],[63.48717,31.7176],[63.4523,31.69974],[63.04833,31.20833]]}},{"type":"Feature","properties":{"number":4,"area":"Clancy","feature_role":"control_point"},"geometry":{"type":"Point","coordinates":[66.77167,31.80167]}},{"type":"Feature","properties":{"number":4,"area":"Clancy","feature_role":"orbit_centerline"},"geometry":{"type":"LineString","coordinates":[[66.77162,31.80163],[66.75328,31.78076],[66.74569,31.76458],[66.74223,31.74743],[66.74503,31.72148],[66.75211,31.70515],[66.76303,31.69042],[66.79431,31.66827],[66.82329,31.65989],[66.8539,31.65952],[66.89209,31.67147],[67.40747,32.09601],[67.41892,32.11047],[67.42886,32.13512],[67.42931,32.16118],[67.42023,32.18607],[67.40928,32.20081],[67.39495,32.2133],[67.35875,32.22946],[67.3179,32.23175],[67.27949,32.21979],[66.77167,31.80167]]}},{"type":"Feature","properties":{"number":5,"area":"Homer","feature_role":"control_point"},"geometry":{"type":"Point","coordinates":[68.22333,32.93833]}},{"type":"Feature","properties":{"number":5,"area":"Homer","feature_role":"orbit_centerline"},"geometry":{"type":"LineString","coordinates":[[68.22338,32.93829],[68.191,32.95975],[68.16134,32.96749],[68.12016,32.96524],[68.09196,32.95433],[68.06917,32.93663],[68.05401,32.9139],[68.04892,32.89702],[68.04812,32.87962],[68.05498,32.85421],[68.07085,32.83183],[68.52259,32.3779],[68.55727,32.35943],[68.58752,32.35434],[68.61815,32.35739],[68.65444,32.37349],[68.67987,32.40066],[68.68905,32.42554],[68.68869,32.45159],[68.68311,32.46835],[68.67352,32.48377],[68.22333,32.93833]]}},{"type":"Feature","properties":{"number":6,"area":"Krusty","feature_role":"control_point"},"geometry":{"type":"Point","coordinates":[68.635,33.22667]}},{"type":"Feature","properties":{"number":6,"area":"Krusty","feature_role":"orbit_centerline"},"geometry":{"type":"LineString","coordinates":[[68.63496,33.22661],[68.62653,33.21069],[68.62225,33.19365],[68.62394,33.16764],[68.63041,33.15109],[68.64084,33.13603],[68.66288,33.11764],[68.70068,33.1036],[68.73174,33.10227],[68.77104,33.113],[68.79521,33.12941],[68.80742,33.1435],[69.16092,33.65693],[69.16901,33.6821],[69.16737,33.70812],[69.15613,33.73244],[69.14382,33.74652],[69.11011,33.76686],[69.06935,33.77402],[69.02862,33.76678],[68.99496,33.74638],[68.98269,33.73227],[68.635,33.22667]]}},{"type":"Feature","properties":{"number":7,"area":"Lenny","feature_role":"control_point"},"geometry":{"type":"Point","coordinates":[65.13667,32.61333]}},{"type":"Feature","properties":{"number":7,"area":"Lenny","feature_role":"orbit_centerline"},"geometry":{"type":"LineString","coordinates":[[65.13663,32.61332],[65.11078,32.59902],[65.09704,32.58601],[65.08681,32.57089],[65.08054,32.5543],[65.07849,32.53698],[65.0835,32.51127],[65.092,32.4954],[65.10422,32.48137],[65.12833,32.46508],[65.16742,32.45455],[65.20822,32.45833],[65.85816,32.70669],[65.88214,32.72317],[65.89891,32.74508],[65.90681,32.77027],[65.90507,32.79629],[65.8986,32.81282],[65.88817,32.82787],[65.85742,32.85093],[65.81816,32.86148],[65.77719,32.8577],[65.13667,32.61333]]}},{"type":"Feature","properties":{"number":8,"area":"Lisa","feature_role":"control_point"},"geometry":{"type":"Point","coordinates":[61.88167,33.74833]}},{"type":"Feature","properties":{"number":8,"area":"Lisa","feature_role":"orbit_centerline"},"geometry":{"type":"LineString","coordinates":[[61.88166,33.74825],[61.88141,33.76566],[61.87682,33.78265],[61.86807,33.79847],[61.85555,33.81243],[61.83094,33.82858],[61.79113,33.83887],[61.75983,33.83717],[61.72198,33.82267],[61.7001,33.804],[61.68988,33.78881],[61.68368,33.77218],[61.61872,33.17438],[61.62401,33.14871],[61.63851,33.12565],[61.6608,33.10748],[61.68869,33.09596],[61.72985,33.09278],[61.769,33.10389],[61.79939,33.12737],[61.80957,33.14255],[61.81576,33.15917],[61.88167,33.74833]]}},{"type":"Feature","properties":{"number":9,"area":"Maggie","feature_role":"control_point"},"geometry":{"type":"Point","coordinates":[63.44,34.045]}},{"type":"Feature","properties":{"number":9,"area":"Maggie","feature_role":"orbit_centerline"},"geometry":{"type":"LineString","coordinates":[[63.43999,34.045],[63.40005,34.03482],[63.37532,34.01873],[63.36271,34.00481],[63.35388,33.98901],[63.3485,33.96334],[63.35038,33.946],[63.35656,33.92937],[63.36678,33.91416],[63.38057,33.90104],[63.41637,33.88327],[63.44729,33.87878],[64.16896,33.93396],[64.19846,33.9429],[64.22994,33.96564],[64.24468,33.98865],[64.25012,34.01431],[64.24828,34.03166],[64.24213,34.0483],[64.23193,34.06352],[64.21813,34.07666],[64.19203,34.09121],[64.15127,34.09895],[63.44,34.045]]}},{"type":"Feature","properties":{"number":10,"area":"Marge","feature_role":"control_point"},"geometry":{"type":"Point","coordinates":[62.05667,34.93167]}},{"type":"Feature","properties":{"number":10,"area":"Marge","feature_role":"orbit_centerline"},"geometry":{"type":"LineString","coordinates":[[62.05662,34.93162],[62.07256,34.95416],[62.07809,34.97096],[62.07925,34.98835],[62.07596,35.00555],[62.06838,35.02181],[62.04972,35.04292],[62.024,35.05827],[61.98315,35.06727],[61.94136,35.06188],[61.91379,35.04886],[61.44541,34.57762],[61.43581,34.56211],[61.42924,34.53663],[61.43255,34.51071],[61.4454,34.48691],[61.4751,34.46242],[61.5143,34.44999],[61.55624,34.45177],[61.59368,34.46745],[62.05667,34.93167]]}},{"type":"Feature","properties":{"number":11,"area":"Milhouse","feature_role":"control_point"},"geometry":{"type":"Point","coordinates":[65.49833,33.38167]}},{"type":"Feature","properties":{"number":11,"area":"Milhouse","feature_role":"orbit_centerline"},"geometry":{"type":"LineString","coordinates":[[65.4983,33.38165],[65.53113,33.4028],[65.54738,33.42505],[65.55326,33.44176],[65.55485,33.45912],[65.55208,33.47637],[65.54506,33.49277],[65.5273,33.51421],[65.49301,33.53374],[65.45214,33.53995],[65.42142,33.53511],[64.77374,33.27649],[64.75012,33.25949],[64.73395,33.23722],[64.72681,33.21186],[64.72938,33.1859],[64.7364,33.16951],[64.74734,33.1547],[64.77889,33.13231],[64.81858,33.1226],[64.85956,33.12722],[65.49833,33.38167]]}},{"type":"Feature","properties":{"number":12,"area":"Moe","feature_role":"control_point"},"geometry":{"type":"Point","coordinates":[65.685,35.37167]}},{"type":"Feature","properties":{"number":12,"area":"Moe","feature_role":"orbit_centerline"},"geometry":{"type":"LineString","coordinates":[[65.68504,35.37166],[65.65378,35.37708],[65.622,35.37436],[65.59282,35.36376],[65.56281,35.33926],[65.55314,35.32374],[65.54763,35.30692],[65.54766,35.28086],[65.55755,35.25609],[65.57632,35.23502],[65.61188,35.21617],[66.28957,35.00632],[66.33179,35.00451],[66.36204,35.01255],[66.39493,35.03432],[66.41087,35.05687],[66.41752,35.08235],[66.41643,35.09974],[66.41095,35.11656],[66.39505,35.13914],[66.36215,35.16095],[65.685,35.37167]]}},{"type":"Feature","properties":{"number":13,"area":"Montgomery","feature_role":"control_point"},"geometry":{"type":"Point","coordinates":[65.51,37.13333]}},{"type":"Feature","properties":{"number":13,"area":"Montgomery","feature_role":"orbit_centerline"},"geometry":{"type":"LineString","coordinates":[[65.51005,37.13326],[65.48954,37.15355],[65.45195,37.17092],[65.41966,37.17504],[65.38736,37.171],[65.35821,37.15919],[65.34197,37.14755],[65.32912,37.13347],[65.3174,37.10915],[65.31511,37.09184],[65.31739,37.07452],[65.32907,37.05019],[65.70086,36.53818],[65.73286,36.51499],[65.77382,36.50425],[65.81667,36.50782],[65.84559,36.5196],[65.86856,36.53799],[65.88336,36.56117],[65.88792,36.57819],[65.88797,36.5956],[65.87965,36.62079],[65.51,37.13333]]}},{"type":"Feature","properties":{"number":14,"area":"Ned","feature_role":"control_point"},"geometry":{"type":"Point","coordinates":[68.28167,36.81167]}},{"type":"Feature","properties":{"number":14,"area":"Ned","feature_role":"orbit_centerline"},"geometry":{"type":"LineString","coordinates":[[68.28161,36.81164],[68.25905,36.80114],[68.23972,36.78711],[68.21859,36.76082],[68.20863,36.73059],[68.20873,36.7097],[68.21425,36.68928],[68.22493,36.67023],[68.24032,36.65337],[68.27069,36.63378],[68.3071,36.62266],[68.33299,36.62054],[68.35888,36.62277],[68.38361,36.62927],[69.05998,36.87438],[69.09031,36.8941],[69.11156,36.92034],[69.1196,36.94022],[69.1216,36.97145],[69.11612,36.99188],[69.10545,37.01095],[69.09004,37.02783],[69.07056,37.04179],[69.04787,37.0522],[69.02295,37.05861],[68.99691,37.06074],[68.97088,37.0585],[68.94601,37.05198],[68.28167,36.81167]]}},{"type":"Feature","properties":{"number":15,"area":"Nelson","feature_role":"control_point"},"geometry":{"type":"Point","coordinates":[71.01833,36.37667]}},{"type":"Feature","properties":{"number":15,"area":"Nelson","feature_role":"orbit_centerline"},"geometry":{"type":"LineString","coordinates":[[71.01831,36.37658],[71.01907,36.40263],[71.01396,36.41954],[71.00458,36.43524],[70.98347,36.455],[70.94556,36.47141],[70.91342,36.47472],[70.87159,36.46649],[70.84498,36.45164],[70.831,36.43835],[70.82077,36.42301],[70.81473,36.40629],[70.68572,35.82412],[70.6884,35.79816],[70.70083,35.77414],[70.71397,35.76037],[70.73953,35.74461],[70.78049,35.73491],[70.82276,35.73956],[70.85907,35.75776],[70.87295,35.77103],[70.88314,35.78635],[70.88917,35.80306],[71.01833,36.37667]]}},{"type":"Feature","properties":{"number":16,"area":"Patty","feature_role":"control_point"},"geometry":{"type":"Point","coordinates":[70.52833,34.90667]}},{"type":"Feature","properties":{"number":16,"area":"Patty","feature_role":"orbit_centerline"},"geometry":{"type":"LineString","coordinates":[[70.52833,34.90667],[70.56945,34.91454],[70.60313,34.93543],[70.61993,34.95755],[70.62611,34.97421],[70.62792,34.99156],[70.62235,35.01721],[70.61333,35.03297],[70.6005,35.04686],[70.57538,35.06286],[70.53489,35.07291],[69.80294,35.06291],[69.77237,35.05566],[69.74604,35.04102],[69.73214,35.02784],[69.7219,35.01259],[69.71432,34.98728],[69.71477,34.96988],[69.71962,34.95293],[69.72867,34.93718],[69.7415,34.92331],[69.76661,34.90733],[69.80702,34.89731],[70.52833,34.90667]]}},{"type":"Feature","properties":{"number":17,"area":"Selma","feature_role":"control_point"},"geometry":{"type":"Point","coordinates":[63.33167,31.89667]}},{"type":"Feature","properties":{"number":17,"area":"Selma","feature_role":"orbit_centerline"},"geometry":{"type":"LineString","coordinates":[[63.33167,31.89667],[63.29165,31.88998],[63.26567,31.87612],[63.24602,31.85611],[63.23461,31.83193],[63.23256,31.80593],[63.23653,31.78885],[63.24459,31.77284],[63.27139,31.74677],[63.29848,31.7346],[63.32866,31.73013],[63.64327,31.72819],[63.67204,31.73714],[63.68879,31.74715],[63.70846,31.76713],[63.7199,31.7913],[63.722,31.8173],[63.71807,31.83438],[63.71004,31.8504],[63.69112,31.87091],[63.65613,31.88869],[63.6259,31.89317],[63.33167,31.89667]]}},{"type":"Feature","properties":{"number":18,"area":"Seymour","feature_role":"control_point"},"geometry":{"type":"Point","coordinates":[67.82333,32.67667]}},{"type":"Feature","properties":{"number":18,"area":"Seymour","feature_role":"orbit_centerline"},"geometry":{"type":"LineString","coordinates":[[67.82329,32.67663],[67.80495,32.65564],[67.79521,32.63091],[67.79401,32.61353],[67.79713,32.59632],[67.80954,32.57245],[67.83842,32.54782],[67.86657,32.53707],[67.90758,32.53503],[67.93704,32.54291],[67.96217,32.55807],[68.18071,32.74016],[68.1964,32.76262],[68.20191,32.77941],[68.20315,32.79679],[68.19693,32.82231],[68.18767,32.83788],[68.17475,32.85149],[68.14033,32.87056],[68.09966,32.87621],[68.05976,32.86746],[68.03456,32.85228],[67.82333,32.67667]]}},{"type":"Feature","properties":{"number":19,"area":"Smithers","feature_role":"control_point"},"geometry":{"type":"Point","coordinates":[68.18833,36.66167]}},{"type":"Feature","properties":{"number":19,"area":"Smithers","feature_role":"orbit_centerline"},"geometry":{"type":"LineString","coordinates":[[68.18834,36.66167],[68.22071,36.66386],[68.25958,36.67893],[68.28183,36.69792],[68.2921,36.71325],[68.29817,36.72997],[68.29977,36.74733],[68.29684,36.76458],[68.28425,36.78861],[68.263,36.80834],[68.22487,36.8247],[67.81618,36.84918],[67.78502,36.84163],[67.75831,36.82674],[67.73867,36.80596],[67.72802,36.78134],[67.72738,36.75529],[67.7326,36.73839],[67.74208,36.72273],[67.75542,36.70899],[67.77202,36.69776],[67.80143,36.68669],[68.18833,36.66167]]}},{"type":"Feature","properties":{"number":1,"area":"Barney","feature_role":"aara_boundary"},"geometry":{"type":"Polygon","coordinates":[[[65.55198,29.74747],[65.13605,29.92019],[65.62856,30.67901],[66.00921,30.50522],[65.55198,29.74747]]]}},{"type":"Feature","properties":{"number":2,"area":"Bart","feature_role":"aara_boundary"},"geometry":{"type":"Polygon","coordinates":[[[63.62177,30.39347],[64.49745,30.75519],[64.69564,30.41776],[63.8055,30.05174],[63.62177,30.39347]]]}},{"type":"Feature","properties":{"number":3,"area":"Carl","feature_role":"aara_boundary"},"geometry":{"type":"Polygon","coordinates":[[[62.86079,31.16222],[63.40269,31.84252],[63.78001,31.63411],[63.25979,30.94017],[62.86079,31.16222]]]}},{"type":"Feature","properties":{"number":17,"area":"Selma","feature_role":"aara_boundary"},"geometry":{"type":"Polygon","coordinates":[[[63.0,31.55833],[63.97083,31.55833],[63.97083,32.08333],[63.0,32.08333],[63.0,31.55833]]]}},{"type":"Feature","properties":{"number":4,"area":"Clancy","feature_role":"aara_boundary"},"geometry":{"type":"Polygon","coordinates":[[[67.27529,32.3837],[67.60016,32.12485],[66.87976,31.50125],[66.56573,31.78623],[67.27529,32.3837]]]}},{"type":"Feature","properties":{"number":5,"area":"Homer","feature_role":"aara_boundary"},"geometry":{"type":"Polygon","coordinates":[[[67.83281,32.84412],[68.20802,33.14974],[68.90593,32.47316],[68.56227,32.1603],[67.83281,32.84412]]]}},{"type":"Feature","properties":{"number":6,"area":"Krusty","feature_role":"aara_boundary"},"geometry":{"type":"Polygon","coordinates":[[[68.9337,33.89397],[68.39061,33.17358],[68.86747,32.94359],[69.37175,33.69539],[68.9337,33.89397]]]}},{"type":"Feature","properties":{"number":7,"area":"Lenny","feature_role":"aara_boundary"},"geometry":{"type":"Polygon","coordinates":[[[64.94989,32.64583],[65.85126,33.01581],[66.02646,32.71568],[65.12048,32.34056],[64.94989,32.64583]]]}},{"type":"Feature","properties":{"number":8,"area":"Lisa","feature_role":"aara_boundary"},"geometry":{"type":"Polygon","coordinates":[[[61.99726,33.86],[61.95299,33.05453],[61.49937,33.07844],[61.54778,33.88024],[61.99726,33.86]]]}},{"type":"Feature","properties":{"number":9,"area":"Maggie","feature_role":"aara_boundary"},"geometry":{"type":"Polygon","coordinates":[[[63.24167,34.14187],[64.30295,34.25375],[64.36603,33.86323],[63.28715,33.7529],[63.24167,34.14187]]]}},{"type":"Feature","properties":{"number":10,"area":"Marge","feature_role":"aara_boundary"},"geometry":{"type":"Polygon","coordinates":[[[62.2552,34.94986],[61.62447,34.32166],[61.26761,34.56121],[61.89004,35.18534],[62.2552,34.94986]]]}},{"type":"Feature","properties":{"number":11,"area":"Milhouse","feature_role":"aara_boundary"},"geometry":{"type":"Polygon","coordinates":[[[64.60301,33.31323],[65.49387,33.66626],[65.67529,33.34281],[64.79327,32.97238],[64.60301,33.31323]]]}},{"type":"Feature","properties":{"number":12,"area":"Moe","feature_role":"aara_boundary"},"geometry":{"type":"Polygon","coordinates":[[[65.37299,35.56352],[66.69706,35.17738],[66.55126,34.85154],[65.22007,35.24693],[65.37299,35.56352]]]}},{"type":"Feature","properties":{"number":13,"area":"Montgomery","feature_role":"aara_boundary"},"geometry":{"type":"Polygon","coordinates":[[[65.54274,37.21592],[66.04712,36.54287],[65.66708,36.41654],[65.1361,37.20383],[65.54274,37.21592]]]}},{"type":"Feature","properties":{"number":14,"area":"Ned","feature_role":"aara_boundary"},"geometry":{"type":"Polygon","coordinates":[[[68.09413,36.8433],[68.95007,37.18926],[69.2814,36.94691],[68.28103,36.5521],[68.09413,36.8433]]]}},{"type":"Feature","properties":{"number":15,"area":"Nelson","feature_role":"aara_boundary"},"geometry":{"type":"Polygon","coordinates":[[[71.16038,36.4978],[70.69616,36.55776],[70.51386,35.7216],[70.98997,35.6641],[71.16038,36.4978]]]}},{"type":"Feature","properties":{"number":16,"area":"Patty","feature_role":"aara_boundary"},"geometry":{"type":"Polygon","coordinates":[[[69.68639,35.17403],[69.68332,34.83592],[70.67788,34.83172],[70.67685,35.16817],[69.68639,35.17403]]]}},{"type":"Feature","properties":{"number":19,"area":"Smithers","feature_role":"aara_boundary"},"geometry":{"type":"Polygon","coordinates":[[[68.5,36.86623],[67.5,36.89517],[67.5,36.69992],[68.5,36.58202],[68.5,36.86623]]]}},{"type":"Feature","properties":{"number":18,"area":"Seymour","feature_role":"aara_boundary"},"geometry":{"type":"Polygon","coordinates":[[[68.20796,33.15398],[67.42034,32.50405],[67.74601,32.23497],[68.50354,32.87793],[68.20796,33.15398]]]}}],"description":"AAR geometry extracted from AAR ROZ - 2009-2013.kmz. Attributes are normalized in isaf-2009-2013-aar-areas.csv. Coordinates are rounded to 5 decimals; orbit lines are Douglas-Peucker simplified with tolerance 0.002 degrees."}
