{"type":"FeatureCollection","name":"OMW 2011 AAR Areas - AIP corrected","features":[{"type":"Feature","properties":{"number":1,"area":"Barney","class":"HA","geometry_status":"OMW_2011_AIP_CORRECTED","validated_in_dcs":false,"route_true_deg":209.132,"leg_nm":35.0,"feature_role":"control_point"},"geometry":{"type":"Point","coordinates":[65.05121194,29.34293006]}},{"type":"Feature","properties":{"number":1,"area":"Barney","class":"HA","geometry_status":"OMW_2011_AIP_CORRECTED","validated_in_dcs":false,"route_true_deg":209.132,"leg_nm":35.0,"feature_role":"orbit_leg"},"geometry":{"type":"LineString","coordinates":[[65.051212,29.34293],[65.377331,29.852305]]}},{"type":"Feature","properties":{"number":2,"area":"Bart","class":"HA","geometry_status":"OMW_2011_AIP_CORRECTED","validated_in_dcs":false,"route_true_deg":225.167,"leg_nm":35.0,"feature_role":"control_point"},"geometry":{"type":"Point","coordinates":[63.67862927,30.097529]}},{"type":"Feature","properties":{"number":2,"area":"Bart","class":"HA","geometry_status":"OMW_2011_AIP_CORRECTED","validated_in_dcs":false,"route_true_deg":225.167,"leg_nm":35.0,"feature_role":"orbit_leg"},"geometry":{"type":"LineString","coordinates":[[63.678629,30.097529],[64.349501,30.147889]]}},{"type":"Feature","properties":{"number":3,"area":"Carl","class":"HA","geometry_status":"OMW_2011_AIP_CORRECTED","validated_in_dcs":false,"route_true_deg":224.561,"leg_nm":35.0,"feature_role":"control_point"},"geometry":{"type":"Point","coordinates":[63.11224329,30.89575948]}},{"type":"Feature","properties":{"number":3,"area":"Carl","class":"HA","geometry_status":"OMW_2011_AIP_CORRECTED","validated_in_dcs":false,"route_true_deg":224.561,"leg_nm":35.0,"feature_role":"orbit_leg"},"geometry":{"type":"LineString","coordinates":[[63.112243,30.895759],[63.394847,31.426664]]}},{"type":"Feature","properties":{"number":4,"area":"Clancy","class":"HA","geometry_status":"OMW_2011_AIP_CORRECTED","validated_in_dcs":false,"route_true_deg":225.276,"leg_nm":35.0,"feature_role":"control_point"},"geometry":{"type":"Point","coordinates":[66.82695501,31.75441342]}},{"type":"Feature","properties":{"number":4,"area":"Clancy","class":"HA","geometry_status":"OMW_2011_AIP_CORRECTED","validated_in_dcs":false,"route_true_deg":225.276,"leg_nm":35.0,"feature_role":"orbit_leg"},"geometry":{"type":"LineString","coordinates":[[66.826955,31.754413],[67.314291,32.165349]]}},{"type":"Feature","properties":{"number":5,"area":"Homer","class":"HA","geometry_status":"OMW_2011_AIP_CORRECTED","validated_in_dcs":false,"route_true_deg":317.573,"leg_nm":35.0,"feature_role":"control_point"},"geometry":{"type":"Point","coordinates":[68.22333333,32.93833333]}},{"type":"Feature","properties":{"number":5,"area":"Homer","class":"HA","geometry_status":"OMW_2011_AIP_CORRECTED","validated_in_dcs":false,"route_true_deg":317.573,"leg_nm":35.0,"feature_role":"orbit_leg"},"geometry":{"type":"LineString","coordinates":[[68.223333,32.938333],[68.691942,32.508916]]}},{"type":"Feature","properties":{"number":6,"area":"Krusty","class":"HA","geometry_status":"OMW_2011_AIP_CORRECTED","validated_in_dcs":false,"route_true_deg":212.35,"leg_nm":35.0,"feature_role":"control_point"},"geometry":{"type":"Point","coordinates":[68.15946309,32.65123012]}},{"type":"Feature","properties":{"number":6,"area":"Krusty","class":"HA","geometry_status":"OMW_2011_AIP_CORRECTED","validated_in_dcs":false,"route_true_deg":212.35,"leg_nm":35.0,"feature_role":"orbit_leg"},"geometry":{"type":"LineString","coordinates":[[68.159463,32.65123],[68.527244,33.145725]]}},{"type":"Feature","properties":{"number":7,"area":"Lenny","class":"HA","geometry_status":"OMW_2011_AIP_CORRECTED","validated_in_dcs":false,"route_true_deg":243.776,"leg_nm":35.0,"feature_role":"control_point"},"geometry":{"type":"Point","coordinates":[65.17832671,32.53764885]}},{"type":"Feature","properties":{"number":7,"area":"Lenny","class":"HA","geometry_status":"OMW_2011_AIP_CORRECTED","validated_in_dcs":false,"route_true_deg":243.776,"leg_nm":35.0,"feature_role":"orbit_leg"},"geometry":{"type":"LineString","coordinates":[[65.178327,32.537649],[65.798752,32.796568]]}},{"type":"Feature","properties":{"number":8,"area":"Lisa","class":"HA","geometry_status":"OMW_2011_AIP_CORRECTED","validated_in_dcs":false,"route_true_deg":4.269,"leg_nm":35.0,"feature_role":"control_point"},"geometry":{"type":"Point","coordinates":[61.81294477,33.66624916]}},{"type":"Feature","properties":{"number":8,"area":"Lisa","class":"HA","geometry_status":"OMW_2011_AIP_CORRECTED","validated_in_dcs":false,"route_true_deg":4.269,"leg_nm":35.0,"feature_role":"orbit_leg"},"geometry":{"type":"LineString","coordinates":[[61.812945,33.666249],[61.76127,33.084901]]}},{"type":"Feature","properties":{"number":9,"area":"Maggie","class":"HA","geometry_status":"OMW_2011_AIP_CORRECTED","validated_in_dcs":false,"route_true_deg":263.247,"leg_nm":35.0,"feature_role":"control_point"},"geometry":{"type":"Point","coordinates":[63.45044263,33.99567161]}},{"type":"Feature","properties":{"number":9,"area":"Maggie","class":"HA","geometry_status":"OMW_2011_AIP_CORRECTED","validated_in_dcs":false,"route_true_deg":263.247,"leg_nm":35.0,"feature_role":"orbit_leg"},"geometry":{"type":"LineString","coordinates":[[63.450443,33.995672],[64.148695,34.066141]]}},{"type":"Feature","properties":{"number":10,"area":"Marge","class":"HA","geometry_status":"OMW_2011_AIP_CORRECTED","validated_in_dcs":false,"route_true_deg":38.639,"leg_nm":35.0,"feature_role":"control_point"},"geometry":{"type":"Point","coordinates":[62.37200425,35.30046557]}},{"type":"Feature","properties":{"number":10,"area":"Marge","class":"HA","geometry_status":"OMW_2011_AIP_CORRECTED","validated_in_dcs":false,"route_true_deg":38.639,"leg_nm":35.0,"feature_role":"orbit_leg"},"geometry":{"type":"LineString","coordinates":[[62.372004,35.300466],[61.9243,34.847117]]}},{"type":"Feature","properties":{"number":11,"area":"Milhouse","class":"HA","geometry_status":"OMW_2011_AIP_CORRECTED","validated_in_dcs":false,"route_true_deg":63.607,"leg_nm":35.0,"feature_role":"control_point"},"geometry":{"type":"Point","coordinates":[65.4646636,33.44219603]}},{"type":"Feature","properties":{"number":11,"area":"Milhouse","class":"HA","geometry_status":"OMW_2011_AIP_CORRECTED","validated_in_dcs":false,"route_true_deg":63.607,"leg_nm":35.0,"feature_role":"orbit_leg"},"geometry":{"type":"LineString","coordinates":[[65.464664,33.442196],[64.83899,33.184454]]}},{"type":"Feature","properties":{"number":12,"area":"Moe","class":"HA","geometry_status":"OMW_2011_AIP_CORRECTED","validated_in_dcs":false,"route_true_deg":275.237,"leg_nm":35.0,"feature_role":"control_point"},"geometry":{"type":"Point","coordinates":[65.32603438,35.07603944]}},{"type":"Feature","properties":{"number":12,"area":"Moe","class":"HA","geometry_status":"OMW_2011_AIP_CORRECTED","validated_in_dcs":false,"route_true_deg":275.237,"leg_nm":35.0,"feature_role":"orbit_leg"},"geometry":{"type":"LineString","coordinates":[[65.326034,35.076039],[65.909957,34.742611]]}},{"type":"Feature","properties":{"number":13,"area":"Montgomery","class":"HA","geometry_status":"OMW_2011_AIP_CORRECTED","validated_in_dcs":false,"route_true_deg":329.863,"leg_nm":35.0,"feature_role":"control_point"},"geometry":{"type":"Point","coordinates":[65.40176942,37.08322069]}},{"type":"Feature","properties":{"number":13,"area":"Montgomery","class":"HA","geometry_status":"OMW_2011_AIP_CORRECTED","validated_in_dcs":false,"route_true_deg":329.863,"leg_nm":35.0,"feature_role":"orbit_leg"},"geometry":{"type":"LineString","coordinates":[[65.401769,37.083221],[65.769349,36.57997]]}},{"type":"Feature","properties":{"number":14,"area":"Ned","class":"HA","geometry_status":"OMW_2011_AIP_CORRECTED","validated_in_dcs":false,"route_true_deg":243.927,"leg_nm":35.0,"feature_role":"control_point"},"geometry":{"type":"Point","coordinates":[68.1702621,36.8867045]}},{"type":"Feature","properties":{"number":14,"area":"Ned","class":"HA","geometry_status":"OMW_2011_AIP_CORRECTED","validated_in_dcs":false,"route_true_deg":243.927,"leg_nm":35.0,"feature_role":"orbit_leg"},"geometry":{"type":"LineString","coordinates":[[68.170262,36.886705],[68.824553,37.145328]]}},{"type":"Feature","properties":{"number":15,"area":"Nelson","class":"HA","geometry_status":"OMW_2011_AIP_CORRECTED","validated_in_dcs":false,"route_true_deg":10.428,"leg_nm":35.0,"feature_role":"control_point"},"geometry":{"type":"Point","coordinates":[71.01833333,36.37666667]}},{"type":"Feature","properties":{"number":15,"area":"Nelson","class":"HA","geometry_status":"OMW_2011_AIP_CORRECTED","validated_in_dcs":false,"route_true_deg":10.428,"leg_nm":35.0,"feature_role":"orbit_leg"},"geometry":{"type":"LineString","coordinates":[[71.018333,36.376667],[70.887291,35.803426]]}},{"type":"Feature","properties":{"number":16,"area":"Patty","class":"HA","geometry_status":"OMW_2011_AIP_CORRECTED","validated_in_dcs":false,"route_true_deg":89.662,"leg_nm":35.0,"feature_role":"control_point"},"geometry":{"type":"Point","coordinates":[71.47789605,34.97134133]}},{"type":"Feature","properties":{"number":16,"area":"Patty","class":"HA","geometry_status":"OMW_2011_AIP_CORRECTED","validated_in_dcs":false,"route_true_deg":89.662,"leg_nm":35.0,"feature_role":"orbit_leg"},"geometry":{"type":"LineString","coordinates":[[71.477896,34.971341],[70.766509,34.975529]]}},{"type":"Feature","properties":{"number":17,"area":"Selma","class":"LA","geometry_status":"OMW_2011_AIP_CORRECTED","validated_in_dcs":false,"route_true_deg":270.0,"leg_nm":35.0,"feature_role":"control_point"},"geometry":{"type":"Point","coordinates":[63.011851,32.023317]}},{"type":"Feature","properties":{"number":17,"area":"Selma","class":"LA","geometry_status":"OMW_2011_AIP_CORRECTED","validated_in_dcs":false,"route_true_deg":270.0,"leg_nm":35.0,"feature_role":"haar_refuel_line"},"geometry":{"type":"LineString","coordinates":[[63.011851,32.023317],[62.325728,32.01974]]}},{"type":"Feature","properties":{"number":18,"area":"Seymour","class":"LA","geometry_status":"OMW_2011_AIP_CORRECTED","validated_in_dcs":false,"route_true_deg":225.0,"leg_nm":35.0,"feature_role":"control_point"},"geometry":{"type":"Point","coordinates":[67.58283,32.433367]}},{"type":"Feature","properties":{"number":18,"area":"Seymour","class":"LA","geometry_status":"OMW_2011_AIP_CORRECTED","validated_in_dcs":false,"route_true_deg":225.0,"leg_nm":35.0,"feature_role":"haar_refuel_line"},"geometry":{"type":"LineString","coordinates":[[67.58283,32.433367],[67.098777,32.018171]]}},{"type":"Feature","properties":{"number":19,"area":"Smithers","class":"LA","geometry_status":"OMW_2011_AIP_CORRECTED","validated_in_dcs":false,"route_true_deg":95.0,"leg_nm":35.0,"feature_role":"control_point"},"geometry":{"type":"Point","coordinates":[68.140171,36.516572]}},{"type":"Feature","properties":{"number":19,"area":"Smithers","class":"LA","geometry_status":"OMW_2011_AIP_CORRECTED","validated_in_dcs":false,"route_true_deg":95.0,"leg_nm":35.0,"feature_role":"haar_refuel_line"},"geometry":{"type":"LineString","coordinates":[[68.140171,36.516572],[68.860629,36.463772]]}}]}
